{
  "norad_id": 60126,
  "name": "STARLINK-31846",
  "history": [
    {
      "epoch": "2026-03-28T22:29:06.941760Z",
      "apogee_km": 475.9955914300681,
      "perigee_km": 474.45084403699093,
      "latitude_deg": 1.1341787053237837e-05,
      "longitude_deg": 133.65831162844566,
      "height_km": 476.1310149944711,
      "semi_major_axis_km": 6853.360217733529,
      "eccentricity": 0.0001127,
      "inclination_deg": 53.1602,
      "raan_deg": 297.2874,
      "arg_perigee_deg": 90.7054,
      "mean_anomaly_deg": 269.4076,
      "mean_motion_rev_day": 15.30197271
    },
    {
      "epoch": "2026-03-29T01:37:12.896832Z",
      "apogee_km": 475.9738104281523,
      "perigee_km": 474.42906794396004,
      "latitude_deg": 1.0529883062320241e-05,
      "longitude_deg": 85.89784887071251,
      "height_km": 476.09865218765407,
      "semi_major_axis_km": 6853.338439186055,
      "eccentricity": 0.0001127,
      "inclination_deg": 53.1602,
      "raan_deg": 296.6805,
      "arg_perigee_deg": 89.92,
      "mean_anomaly_deg": 270.193,
      "mean_motion_rev_day": 15.30204565
    },
    {
      "epoch": "2026-03-30T01:08:00.526848Z",
      "apogee_km": 476.07528613581326,
      "perigee_km": 474.32357334437165,
      "latitude_deg": -1.1554043143804967e-05,
      "longitude_deg": 87.68282047973425,
      "height_km": 476.08080794640216,
      "semi_major_axis_km": 6853.336429740092,
      "eccentricity": 0.0001278,
      "inclination_deg": 53.1603,
      "raan_deg": 292.1296,
      "arg_perigee_deg": 88.906,
      "mean_anomaly_deg": 271.2087,
      "mean_motion_rev_day": 15.30205238
    },
    {
      "epoch": "2026-03-30T01:08:00.527712Z",
      "apogee_km": 476.0753546691776,
      "perigee_km": 474.3235048110073,
      "latitude_deg": -1.2462704922186045e-05,
      "longitude_deg": 87.68281619287767,
      "height_km": 476.08080663589726,
      "semi_major_axis_km": 6853.336429740092,
      "eccentricity": 0.00012781,
      "inclination_deg": 53.1603,
      "raan_deg": 292.1296,
      "arg_perigee_deg": 88.906,
      "mean_anomaly_deg": 271.2087,
      "mean_motion_rev_day": 15.30205238
    },
    {
      "epoch": "2026-03-30T13:40:28.354368Z",
      "apogee_km": 476.2401313271266,
      "perigee_km": 474.5098936844488,
      "latitude_deg": 6.974946493837297e-05,
      "longitude_deg": -103.37530950723144,
      "height_km": 476.3220462971386,
      "semi_major_axis_km": 6853.512012505787,
      "eccentricity": 0.00012623,
      "inclination_deg": 53.1605,
      "raan_deg": 289.7024,
      "arg_perigee_deg": 93.2419,
      "mean_anomaly_deg": 266.8727,
      "mean_motion_rev_day": 15.30146434
    },
    {
      "epoch": "2026-03-30T21:30:42.770304Z",
      "apogee_km": 476.05644301169286,
      "perigee_km": 474.43095817712583,
      "latitude_deg": 6.362640216226241e-05,
      "longitude_deg": 137.2260518839289,
      "height_km": 476.0266365152974,
      "semi_major_axis_km": 6853.380700594409,
      "eccentricity": 0.00011859,
      "inclination_deg": 53.1603,
      "raan_deg": 288.1857,
      "arg_perigee_deg": 81.8448,
      "mean_anomaly_deg": 278.2688,
      "mean_motion_rev_day": 15.30190411
    }
  ]
}